HIMAWARI-8              
1 40267U 14060A   24118.93989368 -.00000264  00000+0  00000+0 0  9992
2 40267   0.0483 117.1727 0001141 293.9100 284.3585  1.00271229 34931
